<!doctype html>

<html>

<head>

<title>TLE for NORAD Catalog Number 44271</title>

</head>

<body>

<pre>
STARLINK-59             
1 44271U 19029AN  19302.08294609  .00002237  00000-0  17308-3 0  9998
2 44271  52.9981 182.4826 0002194  82.5265 277.5973 15.05480181 23973

</pre>
	
</body>

</html>
